LEMUR-2-FINNIAN         
1 66782U 25276DX  26199.75590196  .00001326  00000+0  10940-3 0  9998
2 66782  97.5360 269.7672 0007114 347.4138  12.6908 15.00638130 24732
LEMUR-2-STARLIGHT       
1 66783U 25276DY  26199.73949843  .00003560  00000+0  29499-3 0  9995
2 66783  97.5234 269.3007 0014675  36.6772 323.5453 14.99381178 34927
LEMUR-2-TARTIFLETTE     
1 66784U 25276DZ  26199.93814843  .00003426  00000+0  28419-3 0  9991
2 66784  97.5232 269.5005 0013869  44.6843 315.5495 14.99365437 34958
LEMUR-2-VUKASIN         
1 66785U 25276EA  26199.90550964  .00002332  00000+0  18932-3 0  9994
2 66785  97.5208 269.8336 0002455  42.8453 317.2962 15.00564450 34900
LEMUR-2-HOTSPUR-TOM     
1 66786U 25276EB  26199.73257716  .00002731  00000+0  22817-3 0  9995
2 66786  97.5212 269.2747 0013675  36.9937 323.2227 14.99261370 34850
LEMUR-2-MYRA            
1 66787U 25276EC  26199.93729396  .00003170  00000+0  25459-3 0  9999
2 66787  97.5220 269.7842 0018619  42.8887 317.3785 15.00613502 34971
LEMUR-2 FIKRETDENGIZ    
1 67363U 26004A   26199.79774078  .00001956  00000+0  21614-3 0  9990
2 67363  97.8032 197.8762 0009922  45.8625 314.3406 14.88530422 27982
TWILIGHT-1 OBJECT B     
1 67364U 26004B   26198.96233214  .00000859  00000+0  99977-4 0  9990
2 67364  97.8076 197.0524 0009540  37.8134 322.3751 14.87798598 27869
LEMUR-2-MARIO-SOUSA     
1 67365U 26004C   26199.91151421  .00001910  00000+0  21001-3 0  9997
2 67365  97.8004 197.9831 0009570  46.8577 313.3439 14.88744261 28015
LEMUR-2-SONNENBLUME     
1 67367U 26004E   26199.78061087  .00001205  00000+0  13567-3 0  9997
2 67367  97.8002 197.8252 0009202  48.2789 311.9214 14.88462938 27993
LEMUR-2-WOBLER          
1 67368U 26004F   26199.90373154  .00001627  00000+0  17993-3 0  9998
2 67368  97.8055 198.1014 0009227  39.3743 320.8143 14.88712676 28011
LEMUR-2-GRAM-E-SUE      
1 67370U 26004H   26199.42561133  .00001168  00000+0  13128-3 0  9990
2 67370  97.7987 197.4922 0008394  52.3674 307.8304 14.88597400 27940
LEMUR-2-KATIE           
1 67387U 26004AA  26199.91611466  .00002066  00000+0  21851-3 0  9997
2 67387  97.8048 198.5392 0003159  24.4936 335.6432 14.90268691 28037
LEMUR-2-HCS-BAZUS       
1 67388U 26004AB  26199.91444632  .00001718  00000+0  18267-3 0  9997
2 67388  97.8039 198.5153 0002666  26.1542 333.9810 14.90276957 28032
