OBJECT_NAME,OBJECT_ID,EPOCH,MEAN_MOTION,ECCENTRICITY,INCLINATION,RA_OF_ASC_NODE,ARG_OF_PERICENTER,MEAN_ANOMALY,EPHEMERIS_TYPE,CLASSIFICATION_TYPE,NORAD_CAT_ID,ELEMENT_SET_NO,REV_AT_EPOCH,BSTAR,MEAN_MOTION_DOT,MEAN_MOTION_DDOT
LEMUR-2-FINNIAN,2025-276DX,2026-07-18T18:08:29.929344,15.00638130,.00071145,97.5360,269.7672,347.4138,12.6908,0,U,66782,999,2473,.10940242E-3,.1326E-4,0
LEMUR-2-STARLIGHT,2025-276DY,2026-07-18T17:44:52.664352,14.99381178,.00146756,97.5234,269.3007,36.6772,323.5453,0,U,66783,999,3492,.29499202E-3,.356E-4,0
LEMUR-2-TARTIFLETTE,2025-276DZ,2026-07-18T22:30:56.024352,14.99365437,.0013869,97.5232,269.5005,44.6843,315.5495,0,U,66784,999,3495,.28419406E-3,.3426E-4,0
LEMUR-2-VUKASIN,2025-276EA,2026-07-18T21:43:56.032896,15.00564450,.00024557,97.5208,269.8336,42.8453,317.2962,0,U,66785,999,3490,.18932244E-3,.2332E-4,0
LEMUR-2-HOTSPUR-TOM,2025-276EB,2026-07-18T17:34:54.666624,14.99261370,.00136758,97.5212,269.2747,36.9937,323.2227,0,U,66786,999,3485,.22817056E-3,.2731E-4,0
LEMUR-2-MYRA,2025-276EC,2026-07-18T22:29:42.198144,15.00613502,.00186198,97.5220,269.7842,42.8887,317.3785,0,U,66787,999,3497,.25459078E-3,.317E-4,0
LEMUR-2 FIKRETDENGIZ,2026-004A,2026-07-18T19:08:44.803392,14.88530422,.00099223,97.8032,197.8762,45.8625,314.3406,0,U,67363,999,2798,.21614252E-3,.1956E-4,0
TWILIGHT-1 OBJECT B,2026-004B,2026-07-17T23:05:45.496896,14.87798598,.00095408,97.8076,197.0524,37.8134,322.3751,0,U,67364,999,2786,.99977192E-4,.859E-5,0
LEMUR-2-MARIO-SOUSA,2026-004C,2026-07-18T21:52:34.827744,14.88744261,.00095701,97.8004,197.9831,46.8577,313.3439,0,U,67365,999,2801,.21001049E-3,.191E-4,0
LEMUR-2-SONNENBLUME,2026-004E,2026-07-18T18:44:04.779168,14.88462938,.0009202,97.8002,197.8252,48.2789,311.9214,0,U,67367,999,2799,.13567276E-3,.1205E-4,0
LEMUR-2-WOBLER,2026-004F,2026-07-18T21:41:22.405056,14.88712676,.00092276,97.8055,198.1014,39.3743,320.8143,0,U,67368,999,2801,.1799339E-3,.1627E-4,0
LEMUR-2-GRAM-E-SUE,2026-004H,2026-07-18T10:12:52.818912,14.88597400,.00083944,97.7987,197.4922,52.3674,307.8304,0,U,67370,999,2794,.13127877E-3,.1168E-4,0
LEMUR-2-KATIE,2026-004AA,2026-07-18T21:59:12.306624,14.90268691,.00031596,97.8048,198.5392,24.4936,335.6432,0,U,67387,999,2803,.2185093E-3,.2066E-4,0
LEMUR-2-HCS-BAZUS,2026-004AB,2026-07-18T21:56:48.162048,14.90276957,.00026665,97.8039,198.5153,26.1542,333.9810,0,U,67388,999,2803,.18267095E-3,.1718E-4,0
